[{"OBJECT_NAME":"TRANSPORTER-10 OBJECT AD","OBJECT_ID":"2024-043AD","EPOCH":"2026-03-09T20:38:52.416960","MEAN_MOTION":15.34189901,"ECCENTRICITY":0.00089841,"INCLINATION":97.547,"RA_OF_ASC_NODE":207.3753,"ARG_OF_PERICENTER":221.4908,"MEAN_ANOMALY":138.5653,"EPHEMERIS_TYPE":0,"CLASSIFICATION_TYPE":"U","NORAD_CAT_ID":59125,"ELEMENT_SET_NO":999,"REV_AT_EPOCH":11202,"BSTAR":0.00036310552,"MEAN_MOTION_DOT":0.00011954,"MEAN_MOTION_DDOT":0},{"OBJECT_NAME":"STARLINK-32166","OBJECT_ID":"2024-131C","EPOCH":"2026-03-09T22:47:06.801792","MEAN_MOTION":15.30194154,"ECCENTRICITY":0.00012235,"INCLINATION":53.161,"RA_OF_ASC_NODE":51.5597,"ARG_OF_PERICENTER":104.918,"MEAN_ANOMALY":255.1956,"EPHEMERIS_TYPE":0,"CLASSIFICATION_TYPE":"U","NORAD_CAT_ID":60257,"ELEMENT_SET_NO":999,"REV_AT_EPOCH":9175,"BSTAR":0.00033869595,"MEAN_MOTION_DOT":9.683e-5,"MEAN_MOTION_DDOT":0}]
